NORAD_CAT_ID,OBJECT_NAME,OBJECT_TYPE,EPOCH,MEAN_MOTION,ECCENTRICITY,INCLINATION,RA_OF_ASC_NODE,ARG_OF_PERICENTER,MEAN_ANOMALY,BSTAR,MEAN_MOTION_DOT,MEAN_MOTION_DDOT,TLE_LINE0,TLE_LINE1,TLE_LINE2,SEMIMAJOR_AXIS,PERIOD,APOGEE,PERIGEE,DECAYED
55409.0,STARLINK-5047,PAYLOAD,2024-03-15 16:34:00,14.97453362,0.0003138,69.9995,90.0682,273.6371,86.4429,-0.0082061,-0.00094536,0.0,0 STARLINK-5047,1 55409U 23014U   24075.69028498 -.00094536  00000-0 -82061-2 0  9995,2 55409  69.9995  90.0682 0003138 273.6371  86.4429 14.97453362 62668,6952.905,96.163,576.952,572.588,0.0
55409.0,STARLINK-5047,PAYLOAD,2024-03-16 06:00:00,14.9672721,0.0003092,70.001,88.6577,271.1234,225.7067,-0.0026479,-0.00030277,0.0,0 STARLINK-5047,1 55409U 23014U   24076.25001157 -.00030277  00000-0 -26479-2 0  9994,2 55409  70.0010  88.6577 0003092 271.1234 225.7067 14.96727210 62756,6955.154,96.21,579.169,574.868,0.0
55409.0,STARLINK-5047,PAYLOAD,2024-03-16 14:00:01,14.96725788,0.0003096,70.0007,87.8192,273.9106,218.4591,-0.0021673,-0.00024817,0.0,0 STARLINK-5047,1 55409U 23014U   24076.58334491 -.00024817  00000-0 -21673-2 0  9994,2 55409  70.0007  87.8192 0003096 273.9106 218.4591 14.96725788  5798,6955.158,96.21,579.177,574.87,0.0
55409.0,STARLINK-5047,PAYLOAD,2024-03-16 22:00:00,14.9668473,0.0003128,70.0009,86.9809,267.3218,220.6068,0.0056766,0.00065442,0.0,0 STARLINK-5047,1 55409U 23014U   24076.91667824  .00065442  00000-0  56766-2 0  9998,2 55409  70.0009  86.9809 0003128 267.3218 220.6068 14.96684730 62857,6955.285,96.213,579.326,574.975,0.0
55409.0,STARLINK-5047,PAYLOAD,2024-03-17 14:00:01,14.96671434,0.0003151,70.0008,85.3042,272.7096,206.3193,0.016208,0.00190353,0.0,0 STARLINK-5047,1 55409U 23014U   24077.58334491  .00190353  00000-0  16208-1 0  9999,2 55409  70.0008  85.3042 0003151 272.7096 206.3193 14.96671434 62956,6955.327,96.214,579.383,575.0,0.0
55409.0,STARLINK-5047,PAYLOAD,2024-03-17 22:00:00,14.96763096,0.0003198,70.001,84.4658,266.7104,207.8851,0.048059,0.00585312,0.0,0 STARLINK-5047,1 55409U 23014U   24077.91667824  .00585312  00000-0  48059-1 0  9997,2 55409  70.0010  84.4658 0003198 266.7104 207.8851 14.96763096 63006,6955.043,96.208,579.132,574.683,0.0
55409.0,STARLINK-5047,PAYLOAD,2024-03-18 14:00:01,14.974653,0.000309,70.0007,82.7881,272.9391,193.7123,0.038822,0.00480365,0.0,0 STARLINK-5047,1 55409U 23014U   24078.58334491  .00480365  00000-0  38822-1 0  9991,2 55409  70.0007  82.7881 0003090 272.9391 193.7123 14.97465300 63103,6952.868,96.162,576.882,572.585,0.0
55409.0,STARLINK-5047,PAYLOAD,2024-03-18 16:00:00,14.97548607,0.0003112,70.0008,82.5783,271.8361,283.9367,0.037706,0.00466766,0.0,0 STARLINK-5047,1 55409U 23014U   24078.66667824  .00466766  00000-0  37706-1 0  9998,2 55409  70.0008  82.5783 0003112 271.8361 283.9367 14.97548607  5709,6952.61,96.157,576.639,572.312,0.0
55409.0,STARLINK-5047,PAYLOAD,2024-03-19 02:20:32,14.9737254,0.0002244,70.0003,81.4944,225.5289,134.5686,0.0065123,0.00076548,0.0,0 STARLINK-5047,1 55409U 23014U   24079.09759888  .00076548  00000-0  65123-2 0  9998,2 55409  70.0003  81.4944 0002244 225.5289 134.5686 14.97372540 63172,6953.155,96.168,576.581,573.46,0.0
55409.0,STARLINK-5047,PAYLOAD,2024-03-19 10:21:12,14.9761694,0.0002011,69.9995,80.6504,265.1173,94.9756,0.0085474,0.00101496,0.0,0 STARLINK-5047,1 55409U 23014U   24079.43139463  .00101496  00000-0  85474-2 0  9999,2 55409  69.9995  80.6504 0002011 265.1173  94.9756 14.97616940 63224,6952.399,96.153,575.662,572.866,0.0
55409.0,STARLINK-5047,PAYLOAD,2024-03-20 02:00:01,14.98346033,0.0002902,70.001,79.0077,268.8584,5.0073,-0.0023879,-0.00028481,0.0,0 STARLINK-5047,1 55409U 23014U   24080.08334491 -.00028481  00000-0 -23879-2 0  9995,2 55409  70.0010  79.0077 0002902 268.8584   5.0073 14.98346033 63327,6950.143,96.106,574.025,569.991,0.0
55409.0,STARLINK-5047,PAYLOAD,2024-03-20 14:00:01,14.98351813,0.0002819,70.0004,77.7469,274.8277,175.2588,-0.0035182,-0.00041845,0.0,0 STARLINK-5047,1 55409U 23014U   24080.58334491 -.00041845  00000-0 -35182-2 0  9999,2 55409  70.0004  77.7469 0002819 274.8277 175.2588 14.98351813  5748,6950.125,96.106,573.95,570.031,0.0
55409.0,STARLINK-5047,PAYLOAD,2024-03-20 22:00:00,14.98313378,0.0002823,70.0005,76.9064,267.6404,179.9441,0.0047581,0.0005712,0.0,0 STARLINK-5047,1 55409U 23014U   24080.91667824  .00057120  00000-0  47581-2 0  9992,2 55409  70.0005  76.9064 0002823 267.6404 179.9441 14.98313378 63453,6950.244,96.108,574.071,570.147,0.0
55409.0,STARLINK-5047,PAYLOAD,2024-03-21 14:00:01,14.98349114,0.0002821,70.0003,75.2251,275.6416,166.9235,-0.0039613,-0.00047065,0.0,0 STARLINK-5047,1 55409U 23014U   24081.58334491 -.00047065  00000-0 -39613-2 0  9993,2 55409  70.0003  75.2251 0002821 275.6416 166.9235 14.98349114 63545,6950.134,96.106,573.959,570.038,0.0
55409.0,STARLINK-5047,PAYLOAD,2024-03-21 22:00:01,14.98312473,0.0002823,70.0005,74.3846,268.5366,171.5841,0.0046605,0.00055936,0.0,0 STARLINK-5047,1 55409U 23014U   24081.91668981  .00055936  00000-0  46605-2 0  9997,2 55409  70.0005  74.3846 0002823 268.5366 171.5841 14.98312473  5846,6950.247,96.108,574.074,570.15,0.0
55409.0,STARLINK-5047,PAYLOAD,2024-03-22 04:03:11,14.98329965,0.000281,69.9994,73.7492,271.7099,88.3738,9.5769e-05,1.05e-05,0.0,0 STARLINK-5047,1 55409U 23014U   24082.16888682  .00001050  00000-0  95769-4 0  9992,2 55409  69.9994  73.7492 0002810 271.7099  88.3738 14.98329965 63630,6950.193,96.107,574.011,570.105,0.0
55409.0,STARLINK-5047,PAYLOAD,2024-03-22 14:00:01,14.98336989,0.0002993,70.0004,72.7033,272.9483,162.1611,-0.0035207,-0.00041859,0.0,0 STARLINK-5047,1 55409U 23014U   24082.58335648 -.00041859  00000-0 -35207-2 0  9999,2 55409  70.0004  72.7033 0002993 272.9483 162.1611 14.98336989  5830,6950.171,96.107,574.116,569.956,0.0
55409.0,STARLINK-5047,PAYLOAD,2024-03-22 22:00:00,14.98304819,0.0003034,70.0006,71.8628,266.1747,166.3473,0.0047791,0.00057362,0.0,0 STARLINK-5047,1 55409U 23014U   24082.91667824  .00057362  00000-0  47791-2 0  9995,2 55409  70.0006  71.8628 0003034 266.1747 166.3473 14.98304819  5746,6950.271,96.109,574.244,570.027,0.0
55409.0,STARLINK-5047,PAYLOAD,2024-03-23 04:05:13,14.98329638,0.0002847,69.9997,71.2245,268.6532,91.4301,-7.1774e-05,-9.49e-06,0.0,0 STARLINK-5047,1 55409U 23014U   24083.17029023 -.00000949  00000-0 -71774-4 0  9998,2 55409  69.9997  71.2245 0002847 268.6532  91.4301 14.98329638 63783,6950.194,96.107,574.038,570.08,0.0
55409.0,STARLINK-5047,PAYLOAD,2024-03-23 08:53:37,14.98330943,0.0002832,69.9998,70.7189,268.993,91.0905,-3.6552e-05,-5.29e-06,0.0,0 STARLINK-5047,1 55409U 23014U   24083.37056854 -.00000529  00000-0 -36552-4 0  9991,2 55409  69.9998  70.7189 0002832 268.9930  91.0905 14.98330943 64759,6950.19,96.107,574.023,570.087,0.0
55409.0,STARLINK-5047,PAYLOAD,2024-03-24 04:07:13,14.98335525,0.0002802,70.0,68.698,274.3581,85.7258,4.023e-05,3.87e-06,0.0,0 STARLINK-5047,1 55409U 23014U   24084.17168152  .00000387  00000-0  40230-4 0  9993,2 55409  70.0000  68.6980 0002802 274.3581  85.7258 14.98335525 63932,6950.176,96.107,573.988,570.093,0.0
55409.0,STARLINK-5047,PAYLOAD,2024-03-24 08:55:36,14.98344498,0.0002604,70.0002,68.1945,264.0036,96.0827,0.00014366,1.622e-05,0.0,0 STARLINK-5047,1 55409U 23014U   24084.37195164  .00001622  00000-0  14366-3 0  9991,2 55409  70.0002  68.1945 0002604 264.0036  96.0827 14.98344498 63960,6950.148,96.106,573.823,570.203,0.0
55409.0,STARLINK-5047,PAYLOAD,2024-03-25 05:45:22,14.98324028,0.0002792,70.0002,66.0051,272.9824,87.1015,-5.109e-05,-7.02e-06,0.0,0 STARLINK-5047,1 55409U 23014U   24085.23984335 -.00000702  00000-0 -51090-4 0  9999,2 55409  70.0002  66.0051 0002792 272.9824  87.1015 14.98324028 64098,6950.211,96.107,574.017,570.136,0.0
55409.0,STARLINK-5047,PAYLOAD,2024-03-25 15:22:11,14.98322232,0.0003011,70.0003,64.995,278.6233,81.4585,-0.00017533,-2.184e-05,0.0,0 STARLINK-5047,1 55409U 23014U   24085.64041021 -.00002184  00000-0 -17533-3 0  9999,2 55409  70.0003  64.9950 0003011 278.6233  81.4585 14.98322232 65091,6950.217,96.107,574.175,569.989,0.0
55409.0,STARLINK-5047,PAYLOAD,2024-03-26 02:35:08,14.98319272,0.0002769,70.0004,63.8186,268.8423,91.2419,-0.00023621,-2.909e-05,0.0,0 STARLINK-5047,1 55409U 23014U   24086.10773648 -.00002909  00000-0 -23621-3 0  9998,2 55409  70.0004  63.8186 0002769 268.8423  91.2419 14.98319272 64221,6950.226,96.108,574.016,570.167,0.0
55409.0,STARLINK-5047,PAYLOAD,2024-03-26 08:59:40,14.98320875,0.0002776,70.0006,63.1454,269.0018,91.0823,-0.000199,-2.466e-05,0.0,0 STARLINK-5047,1 55409U 23014U   24086.37477611 -.00002466  00000-0 -19900-3 0  9991,2 55409  70.0006  63.1454 0002776 269.0018  91.0823 14.98320875 65202,6950.221,96.108,574.015,570.157,0.0
55409.0,STARLINK-5047,PAYLOAD,2024-03-26 15:24:12,14.98326333,0.0002809,70.0007,62.4724,267.4988,92.585,-0.00018791,-2.334e-05,0.0,0 STARLINK-5047,1 55409U 23014U   24086.64181325 -.00002334  00000-0 -18791-3 0  9996,2 55409  70.0007  62.4724 0002809 267.4988  92.5850 14.98326333 64301,6950.204,96.107,574.022,570.117,0.0
55409.0,STARLINK-5047,PAYLOAD,2024-03-27 04:13:16,14.98335381,0.000278,70.0004,61.1255,266.4299,93.6542,-8.9534e-05,-1.161e-05,0.0,0 STARLINK-5047,1 55409U 23014U   24087.17588558 -.00001161  00000-0 -89534-4 0  9995,2 55409  70.0004  61.1255 0002780 266.4299  93.6542 14.98335381 64386,6950.176,96.107,573.973,570.109,0.0
55409.0,STARLINK-5047,PAYLOAD,2024-03-27 09:01:40,14.98347413,0.0002859,70.0004,60.6203,267.3201,92.7631,-0.00019918,-2.47e-05,0.0,0 STARLINK-5047,1 55409U 23014U   24087.37615986 -.00002470  00000-0 -19918-3 0  9995,2 55409  70.0004  60.6203 0002859 267.3201  92.7631 14.98347413 64415,6950.139,96.106,573.991,570.017,0.0
55409.0,STARLINK-5047,PAYLOAD,2024-03-27 15:26:13,14.98324091,0.0002902,70.0005,59.947,269.2743,90.8084,0.00021598,2.485e-05,0.0,0 STARLINK-5047,1 55409U 23014U   24087.64320634  .00002485  00000-0  21598-3 0  9999,2 55409  70.0005  59.9470 0002902 269.2743  90.8084 14.98324091 64456,6950.211,96.107,574.093,570.059,0.0
